STARLINK-32260          
1 61522U 24183P   24298.58334491 -.00725519  00000+0 -31093-2 0  9994
2 61522  53.1541 326.4600 0001022  62.8704 188.5775 15.86102755  2711
STARLINK-32305          
1 61523U 24183Q   24298.58334491 -.00735448  00000+0 -31438-2 0  9990
2 61523  53.1544 326.4515 0000900  63.3862 192.4204 15.86178957  2612
STARLINK-32296          
1 61524U 24183R   24298.58334491 -.00729260  00000+0 -31211-2 0  9995
2 61524  53.1542 326.4564 0001078  66.7349 186.6024 15.86138669  2508
STARLINK-32298          
1 61525U 24183S   24298.58334491 -.00739055  00000+0 -31546-2 0  9990
2 61525  53.1544 326.4470 0000974  66.3122 191.6769 15.86216587  2661
STARLINK-32293          
1 61526U 24183T   24298.58334491 -.00747718  00000+0 -31885-2 0  9992
2 61526  53.1542 326.4420 0000885  67.2613 193.1090 15.86257071  2714
STARLINK-32313          
1 61527U 24183U   24298.58334491 -.00759366  00000+0 -32305-2 0  9993
2 61527  53.1540 326.4323 0000635  88.1983 176.7476 15.86334310  2661
STARLINK-32319          
1 61528U 24183V   24298.58334491 -.00753486  00000+0 -32093-2 0  9995
2 61528  53.1543 326.4372 0000732  67.1673 195.5044 15.86295718  2714
STARLINK-32351          
1 61529U 24183W   24298.58334491 -.00766845  00000+0 -32586-2 0  9996
2 61529  53.1542 326.4271 0000684  68.5275 198.9602 15.86374553  2667
STARLINK-32261          
1 61530U 24183X   24298.58334491 -.00774829  00000+0 -32890-2 0  9997
2 61530  53.1543 326.4217 0000621  84.8763 185.2657 15.86415398  2723
STARLINK-32358          
1 61531U 24183Y   24298.58334491 -.00780114  00000+0 -33074-2 0  9997
2 61531  53.1543 326.4172 0000644  69.6066 202.6231 15.86452269  2614
STARLINK-11354 [DTC]    
1 61532U 24184A   24298.58334491 -.00671995  00000+0 -23541-2 0  9993
2 61532  53.1625 192.5513 0000445 107.2251 160.5187 15.90008932  2555
STARLINK-11323 [DTC]    
1 61533U 24184B   24298.58334491 -.00679708  00000+0 -23734-2 0  9998
2 61533  53.1623 192.5445 0000425 107.2437 163.7357 15.90089423  2662
STARLINK-11338 [DTC]    
1 61534U 24184C   24298.58334491 -.00674672  00000+0 -23589-2 0  9992
2 61534  53.1622 192.5482 0000425 115.7511 153.3807 15.90052818  2551
STARLINK-11362 [DTC]    
1 61535U 24184D   24298.58334491 -.00687115  00000+0 -23920-2 0  9998
2 61535  53.1623 192.5369 0000406 106.4367 168.1057 15.90164936  2716
STARLINK-11295 [DTC]    
1 61536U 24184E   24298.58334491 -.00682640  00000+0 -23799-2 0  9991
2 61536  53.1624 192.5407 0000465 119.4774 153.3034 15.90126217  2555
STARLINK-11331 [DTC]    
1 61537U 24184F   24298.58334491 -.00689316  00000+0 -23955-2 0  9993
2 61537  53.1623 192.5333 0000428 117.5174 158.7513 15.90203467  2717
STARLINK-11325 [DTC]    
1 61538U 24184G   24298.58334491 -.00695115  00000+0 -24128-2 0  9991
2 61538  53.1621 192.5290 0000422 116.9745 161.2923 15.90239211  2607
STARLINK-11332 [DTC]    
1 61539U 24184H   24298.58334491 -.00696162  00000+0 -24117-2 0  9993
2 61539  53.1622 192.5262 0000420 115.5797 164.2066 15.90279729  2551
STARLINK-11350 [DTC]    
1 61540U 24184J   24298.58334491 -.00701272  00000+0 -24262-2 0  9995
2 61540  53.1622 192.5220 0000417 117.4706 164.2885 15.90316613  2715
STARLINK-11357 [DTC]    
1 61541U 24184K   24298.58334491 -.00700258  00000+0 -24171-2 0  9998
2 61541  53.1621 192.5187 0000413 102.4012 180.8347 15.90359376  2559
STARLINK-11322 [DTC]    
1 61542U 24184L   24298.58334491 -.00705114  00000+0 -24305-2 0  9994
2 61542  53.1620 192.5145 0000419 111.0857 174.1300 15.90396839  2541
STARLINK-11364 [DTC]    
1 61543U 24184M   24298.58334491 -.00709090  00000+0 -24402-2 0  9990
2 61543  53.1620 192.5107 0000414 102.9419 184.0711 15.90437433  2708
STARLINK-11349 [DTC]    
1 61544U 24184N   24298.58334491 -.00714115  00000+0 -24535-2 0  9992
2 61544  53.1619 192.5070 0000432 113.7287 175.0062 15.90479877  2706
STARLINK-32406          
1 61545U 24184P   24298.58334491 -.01014543  00000+0 -42096-2 0  9994
2 61545  53.1610 192.5634 0000550 111.2957 149.6803 15.87437935  2662
STARLINK-32445          
1 61546U 24184Q   24298.58334491 -.00999813  00000+0 -41606-2 0  9992
2 61546  53.1611 192.5712 0000754 100.9770 156.2435 15.87342557  2711
STARLINK-32411          
1 61547U 24184R   24298.58334491 -.01012877  00000+0 -42103-2 0  9993
2 61547  53.1611 192.5670 0000816 108.8182 150.5837 15.87395153  2665
STARLINK-32424          
1 61548U 24184S   24298.58334491 -.01024907  00000+0 -42471-2 0  9999
2 61548  53.1611 192.5591 0000577  93.2756 169.8600 15.87488246  2663
STARLINK-32389          
1 61549U 24184T   24298.58334491 -.01036899  00000+0 -42823-2 0  9994
2 61549  53.1610 192.5508 0000722 106.4612 160.7434 15.87582965  2658
STARLINK-32476          
1 61550U 24184U   24298.58334491 -.00906552  00000+0 -37007-2 0  9995
2 61550  53.1614 192.5465 0001287  37.1689 232.2782 15.87503974  2707
STARLINK-32366          
1 61551U 24184V   24298.58334491 -.01032718  00000+0 -42729-2 0  9998
2 61551  53.1613 192.5547 0000535  90.2632 175.1974 15.87538001  2663
GAOFEN-12 05            
1 61571U 24186A   24298.53729052  .00001429  00000+0  19463-3 0  9990
2 61571  97.9152 303.7579 0000953  97.1324 262.9996 14.80236440  1277
CZ-4C R/B               
1 61572U 24186B   24298.55642976  .00008071  00000+0  58821-3 0  9993
2 61572  97.9002 304.0218 0051147  19.2956 341.0190 15.02960629  1287
STARLINK-11356 [DTC]    
1 61574U 24187A   24298.66668981 -.00748790  00000+0 -29018-2 0  9998
2 61574  53.1580 248.9632 0000783 127.6719 110.0558 15.88185999  1983
STARLINK-11376 [DTC]    
1 61575U 24187B   24298.66668981 -.00692950  00000+0 -25957-2 0  9993
2 61575  53.1578 248.9543 0000657 120.1162 121.9885 15.88736055  1981
STARLINK-11372 [DTC]    
1 61576U 24187C   24298.66668981 -.00648275  00000+0 -23573-2 0  9997
2 61576  53.1578 248.9455 0000642 119.7177 126.5837 15.89223294  2030
STARLINK-11375 [DTC]    
1 61577U 24187D   24298.66668981 -.00608839  00000+0 -21569-2 0  9993
2 61577  53.1578 248.9380 0000665 121.0360 128.9828 15.89648752  2039
STARLINK-11285 [DTC]    
1 61578U 24187E   24298.66668981 -.00579486  00000+0 -20040-2 0  9992
2 61578  53.1579 248.9300 0000799 122.9837 130.9425 15.90055517  1982
STARLINK-11275 [DTC]    
1 61579U 24187F   24298.66668981 -.00549897  00000+0 -18622-2 0  9999
2 61579  53.1578 248.9233 0000584 116.1324 140.9709 15.90400966  1983
STARLINK-11342 [DTC]    
1 61580U 24187G   24298.66668981 -.00526713  00000+0 -17487-2 0  9991
2 61580  53.1578 248.9165 0000579 109.4911 150.9153 15.90735269  2083
STARLINK-11374 [DTC]    
1 61581U 24187H   24298.66668981 -.00533231  99260-4 -16380-2 0  9997
2 61581  53.1578 248.9099 0000728 128.7217 134.8594 15.91046006  2084
STARLINK-11373 [DTC]    
1 61582U 24187J   24298.66668981 -.00511245  92619-4 -15469-2 0  9997
2 61582  53.1578 248.9039 0000794 130.4379 136.0797 15.91332212  2032
STARLINK-11368 [DTC]    
1 61583U 24187K   24298.66668981 -.00494476  87756-4 -14741-2 0  9992
2 61583  53.1578 248.8978 0000616 123.9236 145.5924 15.91614117  1983
STARLINK-11370 [DTC]    
1 61584U 24187L   24298.66668981 -.00479803  83633-4 -14091-2 0  9998
2 61584  53.1579 248.8912 0000600 122.9609 149.7104 15.91897705  2038
STARLINK-11361 [DTC]    
1 61585U 24187M   24298.66668981 -.00463705  79168-4 -13442-2 0  9990
2 61585  53.1580 248.8859 0000585 122.6939 152.6367 15.92142124  2039
STARLINK-11360 [DTC]    
1 61586U 24187N   24298.66668981 -.00450600  75662-4 -12887-2 0  9998
2 61586  53.1579 248.8800 0000633 126.8572 151.3567 15.92395673  2089
STARLINK-32353          
1 61587U 24187P   24298.66668981 -.00954167  00000+0 -34377-2 0  9993
2 61587  53.1575 248.8835 0000635 100.5238 175.9763 15.90085147  2095
STARLINK-32325          
1 61588U 24187Q   24298.66668981 -.00937127  00000+0 -33942-2 0  9998
2 61588  53.1576 248.8883 0000593 107.8234 166.4611 15.89944287  2149
STARLINK-32416          
1 61589U 24187R   24298.66668981 -.00969864  00000+0 -34758-2 0  9998
2 61589  53.1575 248.8790 0000603 108.6611 170.0368 15.90223673  2147
STARLINK-32413          
1 61590U 24187S   24298.66668981 -.00985123  00000+0 -35116-2 0  9995
2 61590  53.1574 248.8743 0000627 114.7800 166.1252 15.90361879  2149
STARLINK-32409          
1 61591U 24187T   24298.66668981 -.01003335  00000+0 -35560-2 0  9996
2 61591  53.1574 248.8693 0000625 123.5652 159.7447 15.90514364  2148
STARLINK-32422          
1 61592U 24187U   24298.66668981 -.01018959  00000+0 -35932-2 0  9998
2 61592  53.1574 248.8651 0000870 129.8528 155.5495 15.90644711  2143
STARLINK-32397          
1 61593U 24187V   24298.66668981 -.01149015  38893-3 -36114-2 0  9995
2 61593  53.1574 248.8615 0000794 124.6871 162.2230 15.90734181  2146
ONEWEB-0015             
1 61594U 24188A   24298.66668981 -.00005793  00000+0 -58324-3 0  9993
2 61594  86.5106 168.7159 0003729 180.3868  64.5835 14.91486026  1693
ONEWEB-0687             
1 61595U 24188B   24298.66668981 -.00005732  00000+0 -57811-3 0  9997
2 61595  86.5104 168.7160 0003619 178.1509  65.9631 14.91421954  1901
ONEWEB-0688             
1 61596U 24188C   24298.66668981  .00003617  00000+0  36046-3 0  9993
2 61596  86.5116 168.7194 0003095 175.1083  67.1637 14.91309734  1679
ONEWEB-0689             
1 61597U 24188D   24298.66668981 -.00005501  00000+0 -56127-3 0  9992
2 61597  86.5099 168.7194 0001600 156.1628  80.7108 14.90965197  1746
ONEWEB-0690             
1 61598U 24188E   24298.66668981 -.00005960  00000+0 -59679-3 0  9997
2 61598  86.5110 168.7172 0004555 186.5173  61.8456 14.91700065  1738
ONEWEB-0691             
1 61599U 24188F   24298.66668981 -.00005888  00000+0 -59179-3 0  9992
2 61599  86.5122 168.7208 0003968 184.3048  61.8296 14.91556321  1899
